{"type":"FeatureCollection","features":[{"type":"Feature","id":"mi-central","properties":{"id":"mi-central","name":"Central Michigan","short_name":"MI-CENTRAL","region_type":"Michigan Subregion","kind":"subregion","boundary_basis":"Nielsen DMA county groupings with adjustments (RFC-001 Addendum B)","notes":"Flint–Saginaw–Bay City DMA plus the Lansing DMA, plus Sanilac (Detroit DMA) so the Thumb is whole.","counties":["Arenac","Bay","Clinton","Eaton","Genesee","Gladwin","Gratiot","Hillsdale","Huron","Ingham","Iosco","Isabella","Jackson","Midland","Ogemaw","Saginaw","Sanilac","Shiawassee","Tuscola"],"county_count":19,"draft":true,"source":"US Census county boundaries via us-atlas (10m)","coordinator":"MichMesh Discord"},"geometry":{"type":"MultiPolygon","coordinates":[[[[-82.60609947189472,43.69083896277962],[-82.59892088390883,43.590328978979784],[-82.53790288602886,43.43741635405353],[-82.52354571005709,43.225228610476094],[-82.50200994609946,43.1685306708967],[-82.99733251712517,43.15392665615656],[-83.0009218111181,43.28450372912729],[-83.11936851288513,43.28364466943669],[-83.11936851288513,43.32745671365713],[-83.35267262242623,43.32230235551355],[-83.35267262242623,43.23553732676326],[-83.46035144221442,43.23296014769147],[-83.46035144221442,43.223510491094906],[-83.46035144221442,43.04998043359433],[-83.45317285422854,42.88074567454674],[-83.45317285422854,42.87645037609376],[-83.69006625776258,42.87129601795017],[-83.68647696376964,42.78367192950929],[-83.92337036730368,42.7810947504375],[-84.15667447684477,42.776799451984516],[-84.142317300873,42.508772828518275],[-84.142317300873,42.42458497883978],[-84.13154941889418,42.42458497883978],[-84.13154941889418,42.07151144600445],[-84.36485352843528,42.073229565385645],[-84.36126423444234,41.70641107750077],[-84.40074646836469,41.70555201781017],[-84.80633668956689,41.696102361213605],[-84.80633668956689,41.760531838008376],[-84.82428315953159,41.75967277831778],[-84.82787245352453,42.07237050569505],[-84.70942575175751,42.07065238631385],[-84.72019363373633,42.334383711327106],[-84.72019363373633,42.42114874007739],[-85.07194444504445,42.42114874007739],[-85.07553373903738,42.77078603415033],[-84.83864033550336,42.77078603415033],[-84.83864033550336,43.11870520884208],[-84.83505104151041,43.29223526634266],[-84.84581892348923,43.29223526634266],[-84.84581892348923,43.46576532384323],[-85.0863016210162,43.46576532384323],[-85.08989091500915,43.813684498534975],[-84.60533622596226,43.81540261791617],[-84.60892551995519,44.16074461353613],[-84.36844282242822,44.16074461353613],[-84.37203211642117,44.50694566884668],[-83.88747742737426,44.50866378822788],[-83.31677968249681,44.51124096729966],[-83.33113685846858,44.34028808887088],[-83.37420838638386,44.32740219351193],[-83.42445850228502,44.272422373313724],[-83.51060155811558,44.27414049269492],[-83.55008379203792,44.22689220971209],[-83.56444096800968,44.16332179260792],[-83.58238743797438,44.0567983909739],[-83.65058402384024,44.052503092520915],[-83.67929837578376,44.03618095839958],[-83.67929837578376,43.99408703356033],[-83.83004872348724,43.98893267541675],[-83.87670954539546,43.95886558624586],[-83.90901319133191,43.91075824357243],[-83.9269596612966,43.787053648126474],[-83.95567401324013,43.750973141121406],[-83.90901319133191,43.67279870927709],[-83.85158448744487,43.64530879917798],[-83.81928084150842,43.67365776896768],[-83.80133437154372,43.641013500725],[-83.72954849168491,43.62297324722247],[-83.70083413974139,43.601496754957545],[-83.6469947298473,43.60407393402933],[-83.54649449804498,43.70716109690096],[-83.49624438214381,43.70716109690096],[-83.47470861818618,43.73121476823768],[-83.49624438214381,43.77244963338633],[-83.46394073620736,43.81024825977259],[-83.4316370902709,43.88498645285452],[-83.41727991429914,43.84203346832468],[-83.34908332843328,43.86866431873318],[-83.33113685846858,43.89357704976049],[-83.40651203232032,43.920207900169],[-83.32036897648976,43.917630721097204],[-83.28088674256742,43.93824815367153],[-83.26294027260272,43.973469600986],[-83.1803865107651,43.98206019789197],[-83.05835051500515,44.006113869228685],[-83.0260468690687,44.044771555305545],[-82.91477875528754,44.070543346023456],[-82.87529652136521,44.044771555305545],[-82.7927427595276,44.02329506304062],[-82.73890334963349,43.989791735107346],[-82.67788535175352,43.88412739316392],[-82.64199241182412,43.85234218461184],[-82.61686735387353,43.76901339462394],[-82.60609947189472,43.69083896277962]]]]}}]}