{"type":"FeatureCollection","features":[{"type":"Feature","id":"mi-east","properties":{"id":"mi-east","name":"Southeast Michigan","short_name":"MI-EAST","region_type":"Michigan Subregion","kind":"subregion","boundary_basis":"Nielsen DMA county groupings with adjustments (RFC-001 Addendum B)","notes":"Detroit DMA less Sanilac, plus the Toledo spillover county (Lenawee).","counties":["Lapeer","Lenawee","Livingston","Macomb","Monroe","Oakland","St. Clair","Washtenaw","Wayne"],"county_count":9,"draft":true,"source":"US Census county boundaries via us-atlas (10m)","coordinator":"MichMesh Discord"},"geometry":{"type":"MultiPolygon","coordinates":[[[[-82.70659970369704,42.68316194570945],[-82.79633205352053,42.653953916229156],[-82.8214571114711,42.62646400613006],[-82.78915346553465,42.60326939448394],[-82.78197487754878,42.56461170840708],[-82.83581428744287,42.56804794716947],[-82.87529652136521,42.523376843258426],[-82.87170722737227,42.451215829248284],[-82.89683228532284,42.385068233072325],[-82.95785028320283,42.339538069470684],[-83.06552910299102,42.31806157720577],[-83.13013639486394,42.234732787217865],[-83.12295780687806,42.12563220651206],[-83.13372568885688,42.087833580125796],[-83.18756509875098,42.06635708786087],[-83.18756509875098,42.02941752116521],[-83.19115439274393,42.00622290951909],[-83.24858309663097,41.97271958158581],[-83.2701188605886,41.93921625365253],[-83.31677968249681,41.93578001489014],[-83.3419047404474,41.879941135001346],[-83.38138697436975,41.87049147840478],[-83.44240497224972,41.8086391806818],[-83.42445850228502,41.74077346512465],[-83.45317285422854,41.73304192790927],[-83.76185213762137,41.723592271312704],[-83.88029883938839,41.72015603255032],[-84.36126423444234,41.70641107750077],[-84.36485352843528,42.073229565385645],[-84.13154941889418,42.07151144600445],[-84.13154941889418,42.42458497883978],[-84.142317300873,42.42458497883978],[-84.142317300873,42.508772828518275],[-84.15667447684477,42.776799451984516],[-83.92337036730368,42.7810947504375],[-83.68647696376964,42.78367192950929],[-83.69006625776258,42.87129601795017],[-83.45317285422854,42.87645037609376],[-83.45317285422854,42.88074567454674],[-83.46035144221442,43.04998043359433],[-83.46035144221442,43.223510491094906],[-83.46035144221442,43.23296014769147],[-83.35267262242623,43.23553732676326],[-83.35267262242623,43.32230235551355],[-83.11936851288513,43.32745671365713],[-83.11936851288513,43.28364466943669],[-83.0009218111181,43.28450372912729],[-82.99733251712517,43.15392665615656],[-82.50200994609946,43.1685306708967],[-82.4876527701277,43.10238307472074],[-82.42304547825478,43.00788650875508],[-82.4158668902689,42.966651643606426],[-82.45534912419124,42.92713489783897],[-82.48047418214182,42.80257124270242],[-82.46611700617005,42.762195437244365],[-82.50918853408534,42.66512169220692],[-82.52354571005709,42.607564692936926],[-82.58815300193001,42.550866753357525],[-82.64199241182412,42.554302992119915],[-82.6850639397394,42.51822248511485],[-82.68147464574645,42.57492042469424],[-82.71377829168291,42.59811503634035],[-82.67788535175352,42.611859991389906],[-82.62404594185942,42.66512169220692],[-82.67429605776057,42.68745724416244],[-82.70659970369704,42.68316194570945]]]]}}]}