{"type":"FeatureCollection","features":[{"type":"Feature","id":"mi-north","properties":{"id":"mi-north","name":"Northern Michigan","short_name":"MI-NORTH","region_type":"Michigan Subregion","kind":"subregion","boundary_basis":"Nielsen DMA county groupings with adjustments (RFC-001 Addendum B)","notes":"Traverse City–Cadillac DMA, Lower Peninsula counties only, plus the Alpena DMA.","counties":["Alcona","Alpena","Antrim","Benzie","Charlevoix","Cheboygan","Clare","Crawford","Emmet","Grand Traverse","Kalkaska","Lake","Leelanau","Manistee","Mason","Mecosta","Missaukee","Montmorency","Osceola","Oscoda","Otsego","Presque Isle","Roscommon","Wexford"],"county_count":24,"draft":true,"source":"US Census county boundaries via us-atlas (10m)","coordinator":"MichMesh Discord"},"geometry":{"type":"MultiPolygon","coordinates":[[[[-86.0733574690747,44.7784085310753],[-86.0733574690747,44.88493193270932],[-86.03746452914528,44.91585808157081],[-85.99080370723706,44.90039500714006],[-85.93337500335004,44.969119782387814],[-85.8687677114771,44.93905269321692],[-85.80774971359713,44.95022046919468],[-85.77903536165361,44.97771037929378],[-85.74673171571716,45.05158951268512],[-85.71083877578775,45.06533446773467],[-85.65699936589365,45.14608607865078],[-85.61751713197131,45.18646188410884],[-85.58521348603486,45.180448466274655],[-85.54214195811957,45.21051555544555],[-85.53137407614076,45.177012227512265],[-85.59957066200661,45.149522317413165],[-85.61033854398543,45.1134418104081],[-85.56726701607016,45.04385797546975],[-85.64982077790778,44.9742741405314],[-85.60315995599956,44.99059627465274],[-85.60315995599956,44.92702585754857],[-85.6246957199572,44.92101243971439],[-85.65341007190072,44.84885142570425],[-85.63905289592896,44.77497229231292],[-85.59957066200661,44.76552263571635],[-85.53137407614076,44.8900862908529],[-85.52060619416194,44.9742741405314],[-85.47394537225372,44.991455334343335],[-85.50265972419724,44.85572390322903],[-85.55649913409134,44.817925276842765],[-85.57803489804898,44.760368277572766],[-85.52778478214782,44.748341441904415],[-85.4990704302043,44.80418032179321],[-85.44164172631726,44.86001920168201],[-85.39498090440904,44.93132115600155],[-85.36626655246552,45.068770706497055],[-85.38780231642316,45.207938376373754],[-85.36985584645846,45.27064973378733],[-85.30883784857848,45.31274365862658],[-85.27294490864908,45.31532083769837],[-85.20833761677616,45.35655570284702],[-85.09706950299503,45.36686441913418],[-85.03246221112211,45.360851001300006],[-84.91760480334803,45.39349526954269],[-84.92119409734097,45.42184423933239],[-85.03964079910799,45.43644825407253],[-85.08989091500915,45.476824059530585],[-85.11860526695267,45.57475686425863],[-85.06117656306563,45.6391863410534],[-85.01451574115741,45.65121317672176],[-84.94272986129862,45.71048829537295],[-84.9499084492845,45.73711914578145],[-85.01451574115741,45.76031375742757],[-84.79915810158101,45.74742786206861],[-84.77403304363044,45.78952178690786],[-84.73096151571515,45.78780366752667],[-84.7166043397434,45.76632717526174],[-84.5550861100611,45.70189769846698],[-84.46176446624466,45.65207223641236],[-84.41510364433644,45.669253430224295],[-84.3756214104141,45.65550847517474],[-84.32896058850588,45.66409907208072],[-84.20333529875299,45.627159505385045],[-84.12796012490125,45.56187096889968],[-84.11719224292243,45.51290456653566],[-84.05617424504244,45.48970995488954],[-83.93772754327543,45.49314619365193],[-83.90901319133191,45.485414656436554],[-83.80492366553665,45.419267060260594],[-83.72236990369903,45.41325364242642],[-83.60033390793907,45.35226040439404],[-83.49624438214381,45.357414762537616],[-83.42086920829207,45.29040810667106],[-83.38138697436975,45.268931614406135],[-83.4136906203062,45.24573700276002],[-83.38856556235562,45.207079316683156],[-83.3598512104121,45.16326727246272],[-83.32036897648976,45.13749548174481],[-83.2701188605886,45.02324054289542],[-83.3419047404474,45.041280796397956],[-83.39933344433445,45.07048882587825],[-83.45317285422854,45.03526737856378],[-83.43881567825677,44.94077081259812],[-83.3957441503415,44.902972186211855],[-83.32036897648976,44.880636634256334],[-83.32036897648976,44.85830108230081],[-83.29524391853919,44.79301254581545],[-83.29883321253212,44.74576426283262],[-83.27370815458154,44.713979054280536],[-83.28806533055331,44.652985816248155],[-83.31677968249681,44.59542881697816],[-83.31677968249681,44.51124096729966],[-83.88747742737426,44.50866378822788],[-84.37203211642117,44.50694566884668],[-84.36844282242822,44.16074461353613],[-84.60892551995519,44.16074461353613],[-84.60533622596226,43.81540261791617],[-85.08989091500915,43.813684498534975],[-85.0863016210162,43.46576532384323],[-85.56367772207722,43.46834250291502],[-85.56367772207722,43.81540261791617],[-86.03746452914528,43.81540261791617],[-86.43228686836868,43.81969791636916],[-86.43228686836868,43.855778423374225],[-86.46459051430514,43.970892421914215],[-86.5148406302063,44.048207794067935],[-86.50048345423454,44.075697704167034],[-86.42869757437575,44.11950974838748],[-86.38562604646046,44.178784867038665],[-86.34255451854519,44.24922776166761],[-86.26717934469345,44.34544244701446],[-86.23487569875698,44.51811344482444],[-86.22410781677816,44.594569757287566],[-86.26000075670757,44.66329453253532],[-86.25641146271462,44.691643502325014],[-86.15950052490524,44.72858306902068],[-86.08771464504645,44.741468964379635],[-86.0733574690747,44.7784085310753]]],[[[-85.37703443444434,45.81271639855398],[-85.35190937649377,45.79553520474204],[-85.39498090440904,45.7783540109301],[-85.37703443444434,45.81271639855398]]],[[[-85.52419548815487,45.82989759236592],[-85.44882031430313,45.796394264432635],[-85.4631774902749,45.765468115571146],[-85.53137407614076,45.79811238381383],[-85.52419548815487,45.82989759236592]]],[[[-85.62828501395013,45.59795147590475],[-85.60315995599956,45.6391863410534],[-85.59239207402074,45.69846145970459],[-85.57085631006309,45.711347355063545],[-85.56726701607016,45.76031375742757],[-85.50265972419724,45.754300339593385],[-85.50624901819018,45.68128026589265],[-85.49189184221842,45.60997831157311],[-85.56008842808427,45.572179685186846],[-85.62828501395013,45.59795147590475]]],[[[-85.70007089380894,45.73626008609085],[-85.65341007190072,45.74313256361563],[-85.67135654186542,45.696743340323394],[-85.696481599816,45.69760240001399],[-85.70007089380894,45.73626008609085]]],[[[-85.88312488744887,45.44332073159731],[-85.83646406554065,45.42871671685716],[-85.83287477154771,45.37803219511194],[-85.88312488744887,45.44332073159731]]],[[[-86.0661788810888,45.1400726608166],[-86.04464311713117,45.15983103370033],[-85.97644653126531,45.138354541435405],[-85.99798229522295,45.05588481113811],[-86.05900029310293,45.10055591504914],[-86.0661788810888,45.1400726608166]]],[[[-86.15591123091231,45.01035464753647],[-86.11642899698997,45.04815327392273],[-86.09489323303232,45.007777468464674],[-86.15591123091231,45.01035464753647]]]]}}]}