{"type":"FeatureCollection","features":[{"type":"Feature","id":"mi-upper","properties":{"id":"mi-upper","name":"Upper Peninsula","short_name":"MI-UPPER","region_type":"Michigan Subregion","kind":"subregion","boundary_basis":"Nielsen DMA county groupings with adjustments (RFC-001 Addendum B)","notes":"Marquette DMA, the three Upper Peninsula counties Nielsen assigns to Traverse City (Chippewa, Luce, Mackinac), and the Green Bay (Menominee) and Duluth (Gogebic) spillovers.","counties":["Alger","Baraga","Chippewa","Delta","Dickinson","Gogebic","Houghton","Iron","Keweenaw","Luce","Mackinac","Marquette","Menominee","Ontonagon","Schoolcraft"],"county_count":15,"draft":true,"source":"US Census county boundaries via us-atlas (10m)","coordinator":"MichMesh Discord"},"geometry":{"type":"MultiPolygon","coordinates":[[[[-88.1156657510575,45.92181697925979],[-88.24488033480334,45.96305184440843],[-88.2951304507045,45.95102500874008],[-88.38127350653507,45.99140081419814],[-88.42434503445034,45.97851491883918],[-88.49972020830208,45.996555172341715],[-88.50689879628796,46.01803166460664],[-88.60380973409734,46.016313545225444],[-88.61457761607616,45.988823635126344],[-88.66482773197731,45.993118933579325],[-88.68277420194201,46.01459542584425],[-88.74020290582905,46.027481321203204],[-88.81198878568786,46.02146790336903],[-88.93402478144782,46.073870544495435],[-88.99145348533484,46.097065156141554],[-89.09195371713717,46.138300021290206],[-89.92825921749217,46.299803243122426],[-90.12208109311092,46.33674280981809],[-90.11849179911799,46.35993742146421],[-90.2189920309203,46.50340038979389],[-90.31590296872969,46.51714534484344],[-90.35179590865908,46.53776277741777],[-90.35179590865908,46.53776277741777],[-90.39486743657436,46.53260841927418],[-90.416403200532,46.566111747207465],[-90.34820661466614,46.60047413483134],[-90.30513508675087,46.60305131390313],[-90.16515262102621,46.64514523874238],[-90.02875944929448,46.674353268222674],[-89.88877698356983,46.76541359542595],[-89.79186604576046,46.81867529624296],[-89.67341934399343,46.8332793109831],[-89.61957993409933,46.81867529624296],[-89.51549040830407,46.84186990788907],[-89.4365259404594,46.83929272881728],[-89.24988265282653,46.90372220561205],[-89.14220383303832,46.98447381652816],[-88.98786419134191,46.997359711887114],[-88.93402478144782,47.032581159201584],[-88.9053104295043,47.085842860018595],[-88.81557807968079,47.14168173990739],[-88.76532796377964,47.155426694956944],[-88.65764914399143,47.22586958958589],[-88.57509538215382,47.24562796246962],[-88.51407738427383,47.286003767927674],[-88.46023797437974,47.340124528435275],[-88.38845209452094,47.38479563234632],[-88.18027304293042,47.45781570604705],[-87.9792725793258,47.479292198311974],[-87.7998078796788,47.4732787804778],[-87.71725411784118,47.43977545254452],[-87.71366482384823,47.40111776646766],[-87.75314705777058,47.405413064920644],[-87.81416505565055,47.38479563234632],[-87.88236164151641,47.39596340832408],[-87.95773681536815,47.3873728114181],[-87.93979034540345,47.34699700596005],[-88.05464775317753,47.298030603596025],[-88.16232657296572,47.216419932989325],[-88.22693386483864,47.20009779886798],[-88.24846962879629,47.135668322073215],[-88.27359468674686,47.143399859288586],[-88.29871974469744,47.09872875537754],[-88.3489698605986,47.07639320342203],[-88.3669163305633,47.01883620415203],[-88.40998785847859,46.977601339003385],[-88.44229150441504,46.9724469808598],[-88.44947009240092,46.93894365292652],[-88.48536303233033,46.83156119160191],[-88.46382726837268,46.78689008769087],[-88.49613091430913,46.75682299851998],[-88.4566486803868,46.75940017759177],[-88.384862800528,46.8341383706737],[-88.37409491854918,46.87193699705996],[-88.3489698605986,46.8607692210822],[-88.24488033480334,46.92949399632995],[-88.14438010300103,46.966433563025625],[-88.1874516309163,46.91918528004279],[-88.23052315883159,46.89856784746847],[-88.28436256872568,46.832420251292504],[-88.17668374893749,46.904581265302646],[-88.08336210512105,46.92004433973339],[-88.04387987119871,46.91231280251802],[-87.90030811148111,46.909735623446224],[-87.84646870158701,46.88396383272832],[-87.8177543496435,46.89083631025309],[-87.75673635176351,46.8607692210822],[-87.72802199982,46.827265893148926],[-87.67418258992589,46.83671554974549],[-87.59521812208122,46.78259478923788],[-87.5844502401024,46.73019214811147],[-87.52343224222241,46.68809822327223],[-87.50189647826478,46.64772241781417],[-87.45164636236362,46.60562849297492],[-87.38344977649776,46.59274259761597],[-87.39062836448365,46.52487688205881],[-87.3511461305613,46.500823210722096],[-87.25782448674487,46.48793731536315],[-87.11784202102021,46.49480979288792],[-87.0173417892179,46.53346747896478],[-86.97785955529555,46.52659500144001],[-86.92760943939439,46.46474270371703],[-86.88453791147911,46.44154809207091],[-86.81634132561325,46.43811185330853],[-86.78762697366973,46.477628599075985],[-86.73019826978269,46.4716151812418],[-86.69789462384624,46.438970912999125],[-86.68353744787447,46.49824603165031],[-86.70866250582506,46.543776195251944],[-86.65123380193802,46.56095738906388],[-86.62610874398743,46.53346747896478],[-86.64764450794507,46.485360136291355],[-86.5866265100651,46.463024584335834],[-86.49330486624866,46.52487688205881],[-86.34973310653106,46.57813858287582],[-86.13796476094761,46.67263514884148],[-86.09848252702527,46.654594895338946],[-85.86517841748417,46.689816342653415],[-85.7144280697807,46.67693044729447],[-85.58880278002779,46.674353268222674],[-85.4811239602396,46.68036668605685],[-85.23705196871968,46.75596393882938],[-85.17244467684677,46.76369547604475],[-85.06476585705856,46.75768205821058],[-84.9499084492845,46.76970889387893],[-85.02887291712916,46.69754787986879],[-85.03605150511505,46.581574821638206],[-85.02887291712916,46.542917135561346],[-85.05758726907268,46.52659500144001],[-85.02528362313623,46.48278295721956],[-84.96785491924919,46.47591047969479],[-84.93555127331273,46.48965543474434],[-84.9140155093551,46.46731988278882],[-84.86017609946099,46.469897061860614],[-84.79915810158101,46.4458433905239],[-84.67712210582106,46.48793731536315],[-84.63046128391284,46.48450107660076],[-84.5909790499905,46.4449843308333],[-84.59456834398344,46.41491724166241],[-84.50483599415993,46.438970912999125],[-84.47971093620936,46.43295749516494],[-84.44381799627996,46.488796375053745],[-84.3756214104141,46.50941380762807],[-84.29306764857648,46.493091673506726],[-84.25358541465414,46.500823210722096],[-84.22487106271062,46.53432653865538],[-84.12796012490125,46.5300312402024],[-84.11001365493655,46.504259449484486],[-84.14590659486595,46.4183534804248],[-84.12078153691536,46.31526631755317],[-84.11719224292243,46.23365564694646],[-84.22128176871769,46.231937527565265],[-84.24999612066121,46.17609864767647],[-84.1961567107671,46.165789931389305],[-84.1782102408024,46.18383018489184],[-84.1243708309083,46.180393946129456],[-84.09565647896478,46.14774967788677],[-84.02745989309892,46.13142754376543],[-84.07412071500714,46.097065156141554],[-83.9879776591766,46.03263567934679],[-83.9449061312613,46.03177661965619],[-83.87312025140251,45.993118933579325],[-83.84440589945899,46.02576320182201],[-83.79415578355783,45.99569611265112],[-83.7654414316143,46.01803166460664],[-83.82287013550135,46.10393763366633],[-83.7726200196002,46.09105173830738],[-83.62545896588965,46.10221951428514],[-83.58238743797438,46.08933361892618],[-83.53213732207321,46.011159187081866],[-83.47470861818618,45.98452833667336],[-83.51060155811558,45.92954851647516],[-83.56085167401673,45.91236732266322],[-83.65776261182612,45.9458706505965],[-83.76903072560725,45.93212569554695],[-83.88029883938839,45.96820620255202],[-83.91978107331073,45.957897486264855],[-84.01669201112011,45.95875654595545],[-84.11360294892948,45.97851491883918],[-84.32896058850588,45.95617936688366],[-84.3756214104141,45.93212569554695],[-84.50842528815288,45.99140081419814],[-84.56226469804697,46.03263567934679],[-84.60892551995519,46.02662226151261],[-84.65558634186341,46.05239405223052],[-84.69147928179281,46.01717260491604],[-84.68430069380693,45.973360560695596],[-84.73814010370103,45.9458706505965],[-84.7345508097081,45.90721296451964],[-84.70224716377163,45.853092204012036],[-84.74531869168692,45.83591101020009],[-84.83146174751747,45.87199151720517],[-84.84222962949629,45.89862236761367],[-84.91760480334803,45.930407576165756],[-84.93555127331273,45.95617936688366],[-85.01451574115741,46.011159187081866],[-85.15090891288912,46.05067593284932],[-85.19756973479734,46.04466251501514],[-85.31601643656437,46.08675643985439],[-85.38062372843729,46.08246114140141],[-85.4272845503455,46.10221951428514],[-85.4452310203102,46.085038320473195],[-85.51342760617605,46.09448797706976],[-85.60315995599956,46.030058500275],[-85.66417795387953,45.96734714286142],[-85.696481599816,45.96047466533665],[-85.81133900759008,45.980233038220376],[-85.86517841748417,45.96820620255202],[-85.92260712137121,45.94844782966829],[-85.91542853338532,45.919239800187995],[-85.99798229522295,45.95102500874008],[-86.0733574690747,45.965629023480226],[-86.15950052490524,45.95360218781187],[-86.19539346483465,45.96305184440843],[-86.27794722667227,45.942434411834114],[-86.32460804858049,45.90635390482904],[-86.33178663656636,45.85223314432144],[-86.36409028250281,45.79038084659846],[-86.41434039840398,45.79381708536084],[-86.4610012203122,45.757736578355775],[-86.51842992419924,45.74742786206861],[-86.53996568815688,45.707911116301155],[-86.5866265100651,45.70533393722936],[-86.5866265100651,45.6666762511525],[-86.62969803798038,45.65894471393713],[-86.61534086200862,45.60654207281072],[-86.68712674186742,45.634031982909825],[-86.71943038780387,45.6683943705337],[-86.6763588598886,45.691588982179816],[-86.67276956589565,45.72079701166011],[-86.63328733197332,45.74742786206861],[-86.62969803798038,45.78179024969249],[-86.58303721607216,45.7783540109301],[-86.52919780617806,45.853092204012036],[-86.53996568815688,45.8900317707077],[-86.58303721607216,45.89862236761367],[-86.64764450794507,45.8341928908189],[-86.7840376796768,45.854810323393224],[-86.77326979769798,45.810998279172786],[-86.8199306196062,45.77062247371473],[-86.8378770895709,45.722515131041305],[-86.94555590935909,45.6958842806328],[-86.96350237932378,45.672689668986685],[-86.98503814328143,45.70619299691996],[-86.9742702613026,45.753441279902795],[-86.98862743727437,45.810998279172786],[-87.0173417892179,45.838488189271885],[-87.05323472914729,45.82216605515055],[-87.07118119911199,45.719078892278915],[-87.06041331713317,45.70877017599175],[-87.1716814309143,45.661521893008924],[-87.26500307473074,45.55070319292192],[-87.32602107261073,45.42528047809478],[-87.39421765847658,45.369441598205974],[-87.46600353833539,45.27322691285912],[-87.61316459204592,45.12375052669526],[-87.59162882808828,45.095401556905564],[-87.65982541395414,45.107428392573915],[-87.68853976589766,45.14780419803197],[-87.73520058780588,45.17185786936869],[-87.74237917579175,45.19677060039599],[-87.68853976589766,45.29813964388643],[-87.64905753197532,45.33937450903508],[-87.65623611996119,45.368582538515376],[-87.69571835388354,45.3900590307803],[-87.75314705777058,45.349683225322245],[-87.85005799557995,45.34109262841628],[-87.85005799557995,45.34109262841628],[-87.87518305353053,45.38146843387433],[-87.85005799557995,45.40208586644866],[-87.86082587755877,45.43473013469134],[-87.81416505565055,45.46393816417164],[-87.79262929169292,45.49830055179551],[-87.80339717367173,45.538676357253564],[-87.77468282172822,45.59795147590475],[-87.82493293762937,45.66238095269952],[-87.7818614097141,45.67354872867728],[-87.81057576165762,45.711347355063545],[-87.84646870158701,45.722515131041305],[-87.87877234752347,45.75515939928398],[-87.96491540335403,45.75859563804637],[-87.99721904929049,45.79553520474204],[-88.05823704717046,45.780931190001894],[-88.10489786907868,45.79123990628906],[-88.13720151501515,45.81872981638816],[-88.07618351713516,45.8634009202992],[-88.1156657510575,45.92181697925979]]],[[[-84.65199704787048,45.8625418606086],[-84.62328269592696,45.877145875348745],[-84.5909790499905,45.82560229391293],[-84.3576749404494,45.77148153340533],[-84.41869293832939,45.72165607135071],[-84.501246700167,45.73711914578145],[-84.55149681606815,45.78952178690786],[-84.65199704787048,45.8625418606086]]],[[[-86.69071603586036,45.61685078909788],[-86.61893015600155,45.56187096889968],[-86.64764450794507,45.54297165570655],[-86.66200168391684,45.57389780456804],[-86.71225179981799,45.610837371263706],[-86.69071603586036,45.61685078909788]]],[[[-89.25347194681946,47.87617777536774],[-89.17809677296772,47.93545289401893],[-88.83711384363843,48.056580310393095],[-88.81198878568786,48.0548621910119],[-88.65764914399143,48.1390500406904],[-88.5463810302103,48.17513054769547],[-88.52484526625265,48.1656808910989],[-88.42434503445034,48.190593622126215],[-88.42793432844329,48.1665399507895],[-88.47100585635856,48.15279499573995],[-88.57868467614676,48.084070220492194],[-88.57868467614676,48.05829842977429],[-88.66841702597026,48.01105014679146],[-88.85147101961019,47.96551998318982],[-89.00222136731367,47.90882204361043],[-88.99504277932779,47.89164084979849],[-88.91248901749017,47.89164084979849],[-89.12425736307362,47.828929492384916],[-89.18886465494654,47.83150667145671],[-89.25347194681946,47.87617777536774]]]]}}]}