{"type":"FeatureCollection","features":[{"type":"Feature","id":"mi-west","properties":{"id":"mi-west","name":"West Michigan","short_name":"MI-WEST","region_type":"Michigan Subregion","kind":"subregion","boundary_basis":"Nielsen DMA county groupings with adjustments (RFC-001 Addendum B)","notes":"Grand Rapids–Kalamazoo–Battle Creek DMA plus the South Bend–Elkhart spillover counties (Berrien, Cass).","counties":["Allegan","Barry","Berrien","Branch","Calhoun","Cass","Ionia","Kalamazoo","Kent","Montcalm","Muskegon","Newaygo","Oceana","Ottawa","St. Joseph","Van Buren"],"county_count":16,"draft":true,"source":"US Census county boundaries via us-atlas (10m)","coordinator":"MichMesh Discord"},"geometry":{"type":"MultiPolygon","coordinates":[[[[-86.43228686836868,43.81969791636916],[-86.03746452914528,43.81540261791617],[-85.56367772207722,43.81540261791617],[-85.56367772207722,43.46834250291502],[-85.0863016210162,43.46576532384323],[-84.84581892348923,43.46576532384323],[-84.84581892348923,43.29223526634266],[-84.83505104151041,43.29223526634266],[-84.83864033550336,43.11870520884208],[-84.83864033550336,42.77078603415033],[-85.07553373903738,42.77078603415033],[-85.07194444504445,42.42114874007739],[-84.72019363373633,42.42114874007739],[-84.72019363373633,42.334383711327106],[-84.70942575175751,42.07065238631385],[-84.82787245352453,42.07237050569505],[-84.82428315953159,41.75967277831778],[-85.19756973479734,41.75967277831778],[-85.29089137861378,41.75967277831778],[-85.6605886598866,41.75881371862718],[-85.78980324363243,41.75881371862718],[-86.06258958709587,41.760531838008376],[-86.2276971107711,41.75967277831778],[-86.52560851218512,41.75967277831778],[-86.82351991359913,41.760531838008376],[-86.71584109381094,41.818947896968965],[-86.61893015600155,41.89368609005089],[-86.48612627826277,42.11790066929669],[-86.36409028250281,42.24332338412383],[-86.29589369663697,42.35843738266382],[-86.27435793267932,42.4194306206962],[-86.24923287472875,42.48042385872858],[-86.22410781677816,42.59467879757797],[-86.2276971107711,42.64450425963259],[-86.20616134681346,42.71924245271452],[-86.2097506408064,42.76734979538794],[-86.2097506408064,42.859269182281814],[-86.23128640476405,43.015618045970456],[-86.27076863868638,43.11870520884208],[-86.39639392843928,43.31628893767937],[-86.43587616236162,43.39704054859548],[-86.4610012203122,43.47263780136801],[-86.53996568815688,43.61781888907888],[-86.53996568815688,43.659053754227536],[-86.4610012203122,43.74667784266842],[-86.43228686836868,43.81969791636916]]]]}}]}