{"type":"FeatureCollection","features":[{"type":"Feature","id":"midwest","properties":{"id":"midwest","name":"Midwest","short_name":"MIDWEST","region_type":"Top-level Region","kind":"region","notes":"The top of the Michigan hierarchy. Drawn as the U.S. Census Bureau Midwest region: Illinois, Indiana, Iowa, Kansas, Michigan, Minnesota, Missouri, Nebraska, North Dakota, Ohio, South Dakota, Wisconsin. Which neighboring meshes actually carry the tag is a coordination question, not a map one.","states":["Illinois","Indiana","Iowa","Kansas","Michigan","Minnesota","Missouri","Nebraska","North Dakota","Ohio","South Dakota","Wisconsin"],"draft":true,"source":"US Census state boundaries via us-atlas (10m)"},"geometry":{"type":"MultiPolygon","coordinates":[[[[-83.45317285422854,41.73304192790927],[-83.4495835602356,41.710706375953755],[-83.37420838638386,41.68665270461704],[-83.32754756447564,41.70125671935719],[-83.19474368673687,41.63081382472824],[-83.10501133691336,41.6136326309163],[-83.06552910299102,41.595592377413766],[-83.0009218111181,41.53889443783437],[-82.93272522525226,41.51398170680706],[-82.86811793337932,41.53374007969079],[-82.86093934539345,41.576693064220635],[-82.83581428744287,41.587860840198395],[-82.78556417154171,41.54061255721557],[-82.71736758567586,41.54233067659676],[-82.72095687966879,41.510545468044675],[-82.61686735387353,41.42807573774737],[-82.5594386499865,41.399726767957674],[-82.48047418214182,41.38168651445514],[-82.33331312843129,41.43065291681916],[-82.2543486605866,41.434089155581546],[-82.19333066270663,41.46415624475244],[-82.01027666906668,41.51569982618825],[-81.8774727913279,41.48305555794557],[-81.80927620546206,41.495941453304525],[-81.73749032560325,41.488209916089154],[-81.633400799808,41.54061255721557],[-81.52931127401274,41.6144916906069],[-81.50059692206922,41.623082287512865],[-81.44316821818218,41.672907749567486],[-81.28523928249282,41.760531838008376],[-81.24934634256343,41.76139089769897],[-81.00886364503644,41.854169344283434],[-80.90118482524825,41.868773359023585],[-80.81504176941769,41.89798138850388],[-80.5817376598766,41.957256507155066],[-80.52071966199662,41.97787393972939],[-80.52071966199662,40.63859988208881],[-80.58532695386954,40.6154052704427],[-80.63557706977069,40.6162643301333],[-80.66788071570716,40.57331134560345],[-80.62839848178481,40.53551271921719],[-80.59609483584836,40.463351705207046],[-80.61045201182012,40.402358467174665],[-80.5996841298413,40.32074779656796],[-80.61763059980599,40.26490891667916],[-80.65352353973539,40.24515054379543],[-80.67147000970009,40.19274790266902],[-80.7073629496295,40.15151303752037],[-80.7073629496295,40.101687575465746],[-80.73966659556595,40.07591578474784],[-80.73966659556595,39.971110502495016],[-80.76479165351654,39.95392930868308],[-80.75761306553065,39.909258204772044],[-80.80427388743887,39.91870786136861],[-80.78991671146711,39.867164279932794],[-80.82580965139651,39.847405907049065],[-80.82580965139651,39.79843950468504],[-80.86888117931178,39.75720463953639],[-80.82939894538946,39.71425165500654],[-80.86529188531885,39.69191610305102],[-80.8796490612906,39.620614148731484],[-80.93707776517765,39.612882611516106],[-81.04475658496585,39.536426299052984],[-81.10218528885288,39.48745989668896],[-81.1308996407964,39.44622503154031],[-81.17038187471874,39.439352554015535],[-81.20986410864109,39.3929633307233],[-81.27088210652106,39.386090853198525],[-81.3462572803728,39.34571504774047],[-81.38573951429514,39.34313786866868],[-81.40727527825278,39.38780897257972],[-81.46829327613275,39.40413110670106],[-81.55802562595626,39.3388425702157],[-81.56879350793507,39.26754061589615],[-81.68006162171622,39.27355403373033],[-81.69082950369503,39.2263057507475],[-81.72672244362444,39.21599703446034],[-81.75543679556796,39.18077558714587],[-81.74466891358914,39.09830585684856],[-81.81286549945499,39.08198372272722],[-81.80209761747618,39.04504415603155],[-81.76620467754677,39.020131425004244],[-81.78056185351853,38.924775799347984],[-81.81286549945499,38.94625229161291],[-81.84516914539145,38.92907109780097],[-81.85593702737027,38.892990590795904],[-81.88824067330673,38.87409127760277],[-81.92772290722907,38.89127247141471],[-81.89900855528555,38.92563485903858],[-81.94208008320084,38.99350057459574],[-81.98156231712316,38.99435963428633],[-82.02822313903138,39.02872202191021],[-82.04975890298903,38.996936813358126],[-82.0928304309043,38.973742201712014],[-82.14308054680546,38.89814494893948],[-82.14308054680546,38.84058794966949],[-82.2184557206572,38.79591684575845],[-82.1825627807278,38.70571557824577],[-82.17179489874898,38.61895054949549],[-82.19333066270663,38.59317875877758],[-82.25075936659367,38.59919217661176],[-82.29383089450894,38.57513850527505],[-82.30459877648777,38.49095065559655],[-82.32254524645246,38.4488567307573],[-82.40509900829008,38.439407074160734],[-82.53072429804298,38.40504468653686],[-82.5953315899159,38.4222258803488],[-82.60251017790178,38.46002450673506],[-82.64917099981,38.49009159590595],[-82.72454617366174,38.557957311463106],[-82.79992134751348,38.56311166960669],[-82.8465821694217,38.59489687815878],[-82.87888581535815,38.69025250381503],[-82.86811793337932,38.728051130201294],[-82.89324299132991,38.75640009999099],[-82.96861816518165,38.72891018989189],[-83.02245757507575,38.72891018989189],[-83.05476122101221,38.69540686195861],[-83.11936851288513,38.666198832478315],[-83.15526145281453,38.62066866887668],[-83.26294027260272,38.62152772856728],[-83.30960109451094,38.60091029599295],[-83.32754756447564,38.63784986268862],[-83.36702979839798,38.658467295262945],[-83.4675300302003,38.67564848907488],[-83.5213694400944,38.70313839917399],[-83.61469108391084,38.684239085980856],[-83.66494119981199,38.627541146401455],[-83.7654414316143,38.65245387742877],[-83.78338790157902,38.69540686195861],[-83.83722731147311,38.71774241391413],[-83.84799519345194,38.746950443394425],[-83.9520847192472,38.78646718916188],[-84.07053142101421,38.770145055040544],[-84.2141031807318,38.805366502355014],[-84.23204965069651,38.827702054310535],[-84.23204965069651,38.884399993889936],[-84.28947835458354,38.95570194820947],[-84.32537129451295,39.027862962219615],[-84.4294608203082,39.055352872318714],[-84.44381799627996,39.1146279909699],[-84.47253234822348,39.12150046849468],[-84.501246700167,39.09658773746737],[-84.55149681606815,39.09916491653916],[-84.60174693196932,39.074252185511845],[-84.67712210582106,39.09830585684856],[-84.73096151571515,39.14469508014079],[-84.75608657366574,39.14641319952199],[-84.82069386553866,39.105178334373335],[-84.8888904514045,39.066520648296475],[-84.8960690393904,39.04933945448454],[-84.83864033550336,38.98834621645216],[-84.83146174751747,38.961715366043656],[-84.87094398143981,38.92907109780097],[-84.86017609946099,38.897285889248884],[-84.79915810158101,38.89127247141471],[-84.78480092560925,38.869795979149785],[-84.83146174751747,38.83027923338233],[-84.80992598355984,38.792480606996065],[-84.8888904514045,38.79505778606785],[-84.94631915529155,38.77529941318412],[-84.97862280122801,38.77959471163711],[-85.1042480909809,38.7254739511295],[-85.15449820688207,38.69197062319623],[-85.22269479274793,38.700561220102195],[-85.25858773267733,38.73750078679786],[-85.35190937649377,38.731487368963684],[-85.4093380803808,38.73750078679786],[-85.45240960829608,38.70915181700816],[-85.43805243232433,38.60176935568355],[-85.41651666836668,38.54077611765117],[-85.47394537225372,38.50641373002729],[-85.4990704302043,38.46861510364103],[-85.60674924999249,38.439407074160734],[-85.67494583585835,38.30109846397463],[-85.74314242172422,38.26759513604135],[-85.79339253762538,38.28821256861568],[-85.82928547755478,38.27704479263792],[-85.8508212415124,38.222924032130315],[-85.90824994539945,38.16107173440734],[-85.90466065140652,38.08633354132541],[-85.92260712137121,38.026199362983625],[-85.95132147331474,38.0055819304093],[-86.03387523515235,37.99011885597855],[-86.0482324111241,37.95919270711706],[-86.09489323303232,38.00901816917168],[-86.17385770087701,38.00987722886228],[-86.26717934469345,38.057125511845115],[-86.27076863868638,38.13787712276122],[-86.34614381253812,38.195434122031216],[-86.37485816448164,38.19371600265002],[-86.3712688704887,38.16450797316973],[-86.32460804858049,38.15419925688256],[-86.32819734257342,38.13272276461764],[-86.37485816448164,38.131004645236445],[-86.40357251642516,38.10609191420914],[-86.43228686836868,38.12585028709287],[-86.46459051430514,38.10093755606555],[-86.43228686836868,38.08633354132541],[-86.45382263232632,38.050253034320335],[-86.51842992419924,38.042521497104964],[-86.52560851218512,37.961769886188854],[-86.50766204222042,37.92912561794617],[-86.59021580405803,37.9213940807308],[-86.59739439204392,37.8672733202232],[-86.63687662596625,37.842360589195884],[-86.66200168391684,37.86297802177021],[-86.64405521395214,37.906790065990656],[-86.67994815388154,37.915380662896624],[-86.71584109381094,37.8939041706317],[-86.75173403374033,37.91280348382483],[-86.79480556165561,37.98925979628795],[-86.8558235595356,37.987541676906766],[-86.90607367543674,37.94287057299572],[-87.010163201232,37.919675961349604],[-87.04605614116142,37.8939041706317],[-87.06400261112611,37.8105753806438],[-87.08912766907669,37.787380768997686],[-87.12860990299903,37.78480358992589],[-87.15732425494255,37.838065290742904],[-87.22193154681547,37.84923306672066],[-87.30089601466014,37.89819946908469],[-87.37986048250482,37.93599809547095],[-87.45164636236362,37.94115245361453],[-87.50189647826478,37.90936724506244],[-87.55214659416593,37.92568937918379],[-87.57368235812358,37.96778330402304],[-87.6023967100671,37.972937662166615],[-87.62752176801767,37.91623972258722],[-87.58803953409534,37.861259902389016],[-87.63470035600356,37.82689751476514],[-87.67418258992589,37.82947469383693],[-87.66341470794707,37.87758203651036],[-87.68136117791178,37.903353827228266],[-87.83211152561525,37.876722976819764],[-87.87159375953759,37.9213940807308],[-87.90389740547405,37.92483031949319],[-87.93979034540345,37.89046793186931],[-87.90389740547405,37.81229350002499],[-87.94696893338933,37.77191769456694],[-88.02952269522694,37.79940760466604],[-88.05823704717046,37.74270966508664],[-88.11925504505045,37.71264257591575],[-88.15873727897278,37.664535233242326],[-88.1336122210222,37.57433396572965],[-88.06182634116341,37.51591790676906],[-88.08336210512105,37.472964922239214],[-88.25564821678216,37.456642788117875],[-88.29871974469744,37.44719313152131],[-88.36332703657037,37.40252202761027],[-88.41357715247152,37.42485757956579],[-88.47818444434444,37.387058953179526],[-88.48536303233033,37.3398106701967],[-88.51766667826678,37.283971790307895],[-88.5104880902809,37.26249529804297],[-88.44947009240092,37.206656418154175],[-88.42434503445034,37.14995847857478],[-88.46023797437974,37.07350216611165],[-88.51407738427383,37.064911569205684],[-88.56073820618205,37.076079345183445],[-88.62893479204791,37.12075044909449],[-88.75456008180082,37.15511283671836],[-88.80481019770197,37.18861616465164],[-88.9160783114831,37.22469667165671],[-88.98427489734897,37.228991970109696],[-89.03093571925719,37.21095171660716],[-89.0775965411654,37.17487120960209],[-89.10990018710187,37.11903232971329],[-89.16732889098891,37.07436122580225],[-89.18168606696067,37.02711294281942],[-89.1314359510595,36.982441838908386],[-89.09913230512305,36.964401585405845],[-89.11707877508775,36.887086213252125],[-89.13861453904539,36.84756946748467],[-89.17450747897479,36.8398379302693],[-89.17809677296772,36.80719366202661],[-89.11707877508775,36.775408453474526],[-89.12784665706657,36.75135478213782],[-89.18527536095361,36.75393196120961],[-89.19963253692536,36.71613333482334],[-89.16015030300302,36.66630787276872],[-89.18886465494654,36.64139514174141],[-89.21398971289713,36.58040190370903],[-89.26065053480535,36.56493882927828],[-89.32525782667827,36.63194548514485],[-89.37191864858649,36.620777709167086],[-89.4185794704947,36.498791233102324],[-89.44729382243823,36.46442884547845],[-89.49395464434645,36.47044226331263],[-89.48677605636055,36.49707311372113],[-89.46524029240292,36.52971738196381],[-89.48318676236762,36.57181130680306],[-89.55856193621936,36.57352942618426],[-89.57291911219112,36.54775763546635],[-89.54061546625466,36.497932173411726],[-89.51907970229702,36.479032860218595],[-89.5442047602476,36.4240530400204],[-89.5083118203182,36.37336851827518],[-89.5262582902829,36.34158330972309],[-89.61240134611346,36.340724250032494],[-89.61240134611346,36.30893904148041],[-89.53702617226172,36.27543571354713],[-89.53343687826877,36.252241101901014],[-89.58727628816288,36.23935520654206],[-89.69495510795107,36.25310016159161],[-89.7057229899299,36.23505990808908],[-89.60522275812758,36.171489490984904],[-89.60163346413464,36.11908684985849],[-89.68059793197932,36.08472446223462],[-89.69136581395813,36.02029498543985],[-89.73443734187342,36.00053661255612],[-90.37692096660966,35.99538225441254],[-90.31949226272262,36.089878820378196],[-90.236938500885,36.13970428243282],[-90.236938500885,36.159462655316545],[-90.18309909099091,36.204992818918186],[-90.12567038710387,36.229046490254895],[-90.11490250512504,36.26598605695057],[-90.0825988591886,36.27199947478474],[-90.0646523892239,36.38625441363413],[-90.14361685706857,36.4240530400204],[-90.13284897508974,36.436938935379345],[-90.15079544505444,36.497932173411726],[-91.40345904859048,36.49707311372113],[-92.56280100831007,36.497932173411726],[-93.0688914613146,36.497932173411726],[-93.86571472774727,36.498791233102324],[-94.61946646626465,36.49965029279292],[-94.61946646626465,36.998763973029725],[-95.5132006705067,36.99962303272032],[-96.21670229312292,36.998763973029725],[-96.82329297792977,36.998763973029725],[-97.60575906839068,36.998763973029725],[-98.35233221892219,36.99790491333913],[-99.27837006910069,36.99962303272032],[-99.6480673503735,36.99962303272032],[-100.20081862528625,37.002200211792115],[-100.7356234302343,36.998763973029725],[-101.48578587475875,36.995327734267335],[-102.04212644366443,36.99275055519555],[-102.04212644366443,37.92826655825558],[-102.04571573765737,38.045957735867354],[-102.04571573765737,39.13696354292542],[-102.0493050316503,39.30276206321062],[-102.0493050316503,39.67559396892968],[-102.05289432564325,40.0028957110471],[-102.05289432564325,41.00198213121131],[-102.55539548465484,41.00198213121131],[-103.03995017370173,41.00198213121131],[-104.05213107971079,41.00112307152071],[-104.05213107971079,43.001014031230305],[-104.05213107971079,43.297389624486236],[-104.05572037370374,43.304262102011016],[-104.05572037370374,44.87462321642216],[-104.05930966769667,44.99746875217751],[-104.04136319773197,45.0009049909399],[-104.04136319773197,45.750005041140405],[-104.04495249172491,45.9450115909059],[-104.04495249172491,48.37443239591395],[-104.04854178571784,48.3890364106541],[-104.04854178571784,48.999827850668495],[-103.37375451504515,48.998968790977905],[-102.21800184931848,48.998968790977905],[-101.45707152281523,48.998968790977905],[-101.12685647546475,48.998968790977905],[-100.43412273482734,48.999827850668495],[-99.85983569595696,48.998968790977905],[-99.37528100691006,48.998968790977905],[-98.86919055390554,48.999827850668495],[-97.95033129171291,49.00068691035909],[-97.22888319913199,49.00068691035909],[-96.93097179771797,48.999827850668495],[-95.97621959559595,48.999827850668495],[-95.1542712712127,48.998968790977905],[-95.1542712712127,49.384686592055914],[-95.05736033340332,49.35290138350383],[-94.95686010160101,49.37008257731576],[-94.85277057580575,49.32455241371413],[-94.82405622386223,49.29448532454324],[-94.77380610796108,49.12095526704266],[-94.74868105001049,49.09947877477774],[-94.68407375813757,48.883854792437916],[-94.70560952209522,48.82457967378673],[-94.69125234612346,48.7781904504945],[-94.6410022302223,48.74125088379883],[-94.53691270442704,48.70259319772197],[-94.45076964859648,48.692284481434804],[-94.42205529665296,48.70860661555615],[-94.2641263609636,48.699156958959584],[-94.22464412704127,48.64933149690496],[-94.00569719347193,48.64331807907078],[-93.83341108181081,48.62527782556825],[-93.80469672986729,48.568579885988854],[-93.81546461184611,48.526485961149604],[-93.79392884788848,48.51617724486244],[-93.643178500185,48.517895364243635],[-93.6252320302203,48.53078125960259],[-93.54626756237562,48.529063140221396],[-93.463713800538,48.54624433403333],[-93.46730309453095,48.587479199181985],[-93.34885639276392,48.62699594494944],[-93.20887392703926,48.64245901938018],[-93.17657028110281,48.62355970618705],[-92.98633769947699,48.62355970618705],[-92.72790853198532,48.53937185650856],[-92.63458688816888,48.54280809527094],[-92.63099759417594,48.5007141704317],[-92.6991941800418,48.49470075259752],[-92.71355135601355,48.46291554404543],[-92.65612265212651,48.43628469363693],[-92.50896159841598,48.44745246961469],[-92.45512218852188,48.40106324632246],[-92.47665795247953,48.371855216842164],[-92.45512218852188,48.329761292002914],[-92.36897913269132,48.22066071129711],[-92.27924678286783,48.24385532294322],[-92.30796113481135,48.31601633695336],[-92.26130031290313,48.35467402303022],[-92.20746090300902,48.345224366433655],[-92.05671055530554,48.35896932148321],[-91.99928185141852,48.321170695096946],[-92.00646043940439,48.26533181520814],[-91.9454424415244,48.23011036789367],[-91.89519232562326,48.23784190510904],[-91.86288867968679,48.206915756247554],[-91.71572762597626,48.19918421903218],[-91.69778115601156,48.14162721976219],[-91.71213833198331,48.11499636935368],[-91.64035245212452,48.09695611585115],[-91.5577986902869,48.10812389182891],[-91.56856657226572,48.043694415034146],[-91.48960210442104,48.067748086370855],[-91.43935198851987,48.048848773177724],[-91.37115540265403,48.06946620575205],[-91.24911940689407,48.084070220492194],[-91.08401188321884,48.18114396552965],[-91.02299388533885,48.19231174150741],[-90.97633306343063,48.21980165160651],[-90.88660071360714,48.245573442324414],[-90.83635059770597,48.23440566634665],[-90.83635059770597,48.17684866707666],[-90.775332599826,48.16224465233652],[-90.79686836378363,48.139909100381],[-90.76097542385423,48.098674235232345],[-90.70354671996719,48.09609705616055],[-90.5779214302143,48.121009787187866],[-90.55638566625666,48.09609705616055],[-90.46665331643317,48.10898295151951],[-90.37333167261673,48.09351987708877],[-90.30513508675087,48.10468765306652],[-90.13284897508974,48.1115601305913],[-90.02875944929448,48.087506459254584],[-89.99645580335803,48.03080851967519],[-89.87441980759807,47.98527835607355],[-89.82058039770398,48.01534544524444],[-89.74879451784517,48.02307698245982],[-89.70213369593695,48.00589578864788],[-89.61957993409933,48.01105014679146],[-89.58009770017699,47.99558707236071],[-89.4903653503535,48.014486385553845],[-89.58727628816288,47.96637904288042],[-89.62316922809228,47.98356023669236],[-89.63752640406403,47.95435220721206],[-89.69854440194402,47.94146631185311],[-89.79186604576046,47.89164084979849],[-89.92466992349924,47.8624328203182],[-89.97492003940039,47.83064761176611],[-90.16156332703326,47.79284898537985],[-90.33384943869439,47.74645976208761],[-90.38768884858848,47.74130540394403],[-90.53843919629196,47.70264771786717],[-90.55279637226371,47.690620882198814],[-90.73585036590366,47.624473286022855],[-90.86865424364244,47.556607570465694],[-91.12708341113411,47.39939964708646],[-91.18810140901408,47.340124528435275],[-91.38551257862578,47.18721190350903],[-91.47883422244222,47.12535960578605],[-91.57215586625865,47.090138158471575],[-91.66547751007509,47.01454090569905],[-91.70495974399743,47.005091249102485],[-91.80545997579975,46.93378929478294],[-91.84135291572915,46.92519869787697],[-92.06029984929849,46.81008469933698],[-92.09260349523495,46.788608207072066],[-92.06388914329143,46.74565522254222],[-92.01363902739027,46.70613847677476],[-91.94185314753148,46.68036668605685],[-91.81981715177152,46.689816342653415],[-91.64394174611746,46.73448744656446],[-91.5757451602516,46.75768205821058],[-91.51113786837868,46.75768205821058],[-91.33885175671756,46.81781623655236],[-91.24911940689407,46.84101084819847],[-91.22758364293642,46.86334640015399],[-91.16656564505645,46.84444708696086],[-91.14144058710586,46.87279605675056],[-91.05170823728237,46.88138665365653],[-90.97274376943768,46.94152083199831],[-90.92249365353653,46.93121211571115],[-90.87224353763537,46.96127920488204],[-90.83635059770597,46.95784296611966],[-90.75020754187541,46.88825913118131],[-90.80045765777658,46.82297059469594],[-90.88660071360714,46.75596393882938],[-90.85429706767067,46.693252581415805],[-90.91172577155771,46.663185492244914],[-90.95120800548005,46.597037896068954],[-90.90454718357184,46.5832929410194],[-90.75379683586836,46.64600429843298],[-90.73585036590366,46.69239352172521],[-90.58510001820018,46.59961507514075],[-90.53843919629196,46.58071576194761],[-90.5061355503555,46.589306358853584],[-90.416403200532,46.566111747207465],[-90.34820661466614,46.60047413483134],[-90.30513508675087,46.60305131390313],[-90.16515262102621,46.64514523874238],[-90.02875944929448,46.674353268222674],[-89.91749133551335,46.74050086439863],[-89.8492947496475,46.79548068459684],[-89.79186604576046,46.81867529624296],[-89.67341934399343,46.8332793109831],[-89.61957993409933,46.81867529624296],[-89.51549040830407,46.84186990788907],[-89.4365259404594,46.83929272881728],[-89.24988265282653,46.90372220561205],[-89.14220383303832,46.98447381652816],[-89.06323936519365,46.98876911498114],[-88.95914983939839,47.00852748786487],[-88.923256899469,47.04203081579815],[-88.9053104295043,47.085842860018595],[-88.81557807968079,47.14168173990739],[-88.76532796377964,47.155426694956944],[-88.65764914399143,47.22586958958589],[-88.57509538215382,47.24562796246962],[-88.49972020830208,47.293735305143045],[-88.46023797437974,47.340124528435275],[-88.38845209452094,47.38479563234632],[-88.18027304293042,47.45781570604705],[-87.9792725793258,47.479292198311974],[-87.7998078796788,47.4732787804778],[-87.71725411784118,47.43977545254452],[-87.71366482384823,47.40111776646766],[-87.75314705777058,47.405413064920644],[-87.81416505565055,47.38479563234632],[-87.88236164151641,47.39596340832408],[-87.95773681536815,47.3873728114181],[-87.93979034540345,47.34699700596005],[-88.05464775317753,47.298030603596025],[-88.16232657296572,47.216419932989325],[-88.23052315883159,47.19923873917738],[-88.24846962879629,47.135668322073215],[-88.27359468674686,47.143399859288586],[-88.29871974469744,47.09872875537754],[-88.3489698605986,47.07639320342203],[-88.3669163305633,47.01883620415203],[-88.40998785847859,46.977601339003385],[-88.44229150441504,46.9724469808598],[-88.48536303233033,46.83156119160191],[-88.46382726837268,46.78689008769087],[-88.49613091430913,46.75682299851998],[-88.4566486803868,46.75940017759177],[-88.384862800528,46.8341383706737],[-88.37409491854918,46.87193699705996],[-88.3489698605986,46.8607692210822],[-88.24488033480334,46.92949399632995],[-88.14438010300103,46.966433563025625],[-88.1874516309163,46.91918528004279],[-88.23052315883159,46.89856784746847],[-88.28436256872568,46.832420251292504],[-88.17668374893749,46.904581265302646],[-88.08336210512105,46.92004433973339],[-88.03311198921989,46.908876563755626],[-87.90030811148111,46.909735623446224],[-87.84646870158701,46.88396383272832],[-87.8177543496435,46.89083631025309],[-87.75673635176351,46.8607692210822],[-87.72802199982,46.827265893148926],[-87.67418258992589,46.83671554974549],[-87.59521812208122,46.78259478923788],[-87.5844502401024,46.73019214811147],[-87.52343224222241,46.68809822327223],[-87.50189647826478,46.64772241781417],[-87.45164636236362,46.60562849297492],[-87.38344977649776,46.59274259761597],[-87.39062836448365,46.52487688205881],[-87.3511461305613,46.500823210722096],[-87.25782448674487,46.48793731536315],[-87.10707413904139,46.496527912269116],[-87.0173417892179,46.53346747896478],[-86.97785955529555,46.52659500144001],[-86.92760943939439,46.46474270371703],[-86.88453791147911,46.44154809207091],[-86.81634132561325,46.43811185330853],[-86.78762697366973,46.477628599075985],[-86.73019826978269,46.4716151812418],[-86.69789462384624,46.438970912999125],[-86.68353744787447,46.49824603165031],[-86.70866250582506,46.543776195251944],[-86.65123380193802,46.56095738906388],[-86.62610874398743,46.53346747896478],[-86.64764450794507,46.485360136291355],[-86.5866265100651,46.463024584335834],[-86.49330486624866,46.52487688205881],[-86.34973310653106,46.57813858287582],[-86.13796476094761,46.67263514884148],[-86.09848252702527,46.654594895338946],[-85.87953559345593,46.69067540234401],[-85.7144280697807,46.67693044729447],[-85.58880278002779,46.674353268222674],[-85.4811239602396,46.68036668605685],[-85.25858773267733,46.75338675975759],[-85.17244467684677,46.76369547604475],[-85.06476585705856,46.75768205821058],[-84.9499084492845,46.76970889387893],[-85.02887291712916,46.69754787986879],[-85.03605150511505,46.581574821638206],[-85.02887291712916,46.542917135561346],[-85.05758726907268,46.52659500144001],[-85.02528362313623,46.48278295721956],[-84.96785491924919,46.47591047969479],[-84.93555127331273,46.48965543474434],[-84.9140155093551,46.46731988278882],[-84.86017609946099,46.469897061860614],[-84.79915810158101,46.4458433905239],[-84.67712210582106,46.48793731536315],[-84.63046128391284,46.48450107660076],[-84.5909790499905,46.4449843308333],[-84.59456834398344,46.41491724166241],[-84.50483599415993,46.438970912999125],[-84.47971093620936,46.43295749516494],[-84.44381799627996,46.488796375053745],[-84.3756214104141,46.50941380762807],[-84.29306764857648,46.493091673506726],[-84.25358541465414,46.500823210722096],[-84.22487106271062,46.53432653865538],[-84.12796012490125,46.5300312402024],[-84.11001365493655,46.504259449484486],[-84.14590659486595,46.4183534804248],[-84.12078153691536,46.31526631755317],[-84.11719224292243,46.23365564694646],[-84.22128176871769,46.231937527565265],[-84.24999612066121,46.17609864767647],[-84.1961567107671,46.165789931389305],[-84.1782102408024,46.18383018489184],[-84.1243708309083,46.180393946129456],[-84.09565647896478,46.14774967788677],[-84.02745989309892,46.13142754376543],[-84.07412071500714,46.097065156141554],[-83.9879776591766,46.03263567934679],[-83.9449061312613,46.03177661965619],[-83.87312025140251,45.993118933579325],[-83.84440589945899,46.02576320182201],[-83.79415578355783,45.99569611265112],[-83.7654414316143,46.01803166460664],[-83.82287013550135,46.10393763366633],[-83.7726200196002,46.09105173830738],[-83.62545896588965,46.10221951428514],[-83.58238743797438,46.08933361892618],[-83.53213732207321,46.011159187081866],[-83.47470861818618,45.98452833667336],[-83.51060155811558,45.92954851647516],[-83.56085167401673,45.91236732266322],[-83.65776261182612,45.9458706505965],[-83.76903072560725,45.93212569554695],[-83.88029883938839,45.96820620255202],[-83.91978107331073,45.957897486264855],[-84.01669201112011,45.95875654595545],[-84.11360294892948,45.97851491883918],[-84.32896058850588,45.95617936688366],[-84.3756214104141,45.93212569554695],[-84.50842528815288,45.99140081419814],[-84.56226469804697,46.03263567934679],[-84.60892551995519,46.02662226151261],[-84.65558634186341,46.05239405223052],[-84.69147928179281,46.01717260491604],[-84.68430069380693,45.973360560695596],[-84.73814010370103,45.9458706505965],[-84.7345508097081,45.90721296451964],[-84.70224716377163,45.853092204012036],[-84.74531869168692,45.83591101020009],[-84.83146174751747,45.87199151720517],[-84.84222962949629,45.89862236761367],[-84.91760480334803,45.930407576165756],[-84.93555127331273,45.95617936688366],[-85.01451574115741,46.011159187081866],[-85.15090891288912,46.05067593284932],[-85.19756973479734,46.04466251501514],[-85.31601643656437,46.08675643985439],[-85.38062372843729,46.08246114140141],[-85.4272845503455,46.10221951428514],[-85.4452310203102,46.085038320473195],[-85.51342760617605,46.09448797706976],[-85.60315995599956,46.030058500275],[-85.66417795387953,45.96734714286142],[-85.696481599816,45.96047466533665],[-85.81133900759008,45.980233038220376],[-85.8938927694277,45.96734714286142],[-85.92260712137121,45.94844782966829],[-85.91542853338532,45.919239800187995],[-85.99798229522295,45.95102500874008],[-86.0733574690747,45.965629023480226],[-86.15950052490524,45.95360218781187],[-86.19539346483465,45.96305184440843],[-86.27794722667227,45.942434411834114],[-86.32460804858049,45.90635390482904],[-86.33178663656636,45.85223314432144],[-86.36409028250281,45.79038084659846],[-86.41434039840398,45.79381708536084],[-86.43946545635455,45.76031375742757],[-86.51842992419924,45.74742786206861],[-86.53996568815688,45.707911116301155],[-86.5866265100651,45.70533393722936],[-86.5866265100651,45.6666762511525],[-86.62969803798038,45.65894471393713],[-86.61534086200862,45.60654207281072],[-86.68712674186742,45.634031982909825],[-86.71943038780387,45.6683943705337],[-86.6763588598886,45.691588982179816],[-86.67276956589565,45.72079701166011],[-86.63328733197332,45.74742786206861],[-86.62969803798038,45.78179024969249],[-86.58303721607216,45.7783540109301],[-86.52919780617806,45.853092204012036],[-86.53996568815688,45.8900317707077],[-86.58303721607216,45.89862236761367],[-86.64764450794507,45.8341928908189],[-86.7840376796768,45.854810323393224],[-86.77326979769798,45.810998279172786],[-86.8199306196062,45.77062247371473],[-86.8378770895709,45.722515131041305],[-86.94555590935909,45.6958842806328],[-86.96350237932378,45.672689668986685],[-86.98503814328143,45.70619299691996],[-86.9742702613026,45.753441279902795],[-86.98862743727437,45.810998279172786],[-87.0173417892179,45.838488189271885],[-87.05323472914729,45.82216605515055],[-87.07118119911199,45.719078892278915],[-87.06041331713317,45.70877017599175],[-87.1716814309143,45.661521893008924],[-87.26500307473074,45.55070319292192],[-87.32602107261073,45.42528047809478],[-87.39421765847658,45.369441598205974],[-87.46600353833539,45.27322691285912],[-87.61316459204592,45.12375052669526],[-87.59162882808828,45.095401556905564],[-87.62752176801767,45.045576094850944],[-87.63111106201062,44.97685131960319],[-87.7639149397494,44.96568354362543],[-87.83929011360114,44.93132115600155],[-87.82852223162232,44.8909453505435],[-87.86800446554466,44.84026082879828],[-87.90030811148111,44.82737493343933],[-87.93979034540345,44.756072979119786],[-87.98286187331873,44.71999247211471],[-88.00798693126931,44.63065026429263],[-87.99721904929049,44.60917377202771],[-88.04387987119871,44.56622078749787],[-87.9720939913399,44.530140280492795],[-87.92902246342463,44.53615369832698],[-87.90389740547405,44.58168386192861],[-87.81057576165762,44.636663682126816],[-87.77468282172822,44.6392408611986],[-87.72084341183411,44.69336162170621],[-87.72084341183411,44.7242877705677],[-87.60957529805297,44.838542709417084],[-87.51625365423654,44.86946885827857],[-87.4767714203142,44.8634554404444],[-87.43728918639187,44.89266346992469],[-87.38344977649776,44.86517355982559],[-87.4049855404554,44.90469030559305],[-87.36191401254013,44.988019095580945],[-87.26500307473074,45.08165660185601],[-87.23987801678017,45.1675625709157],[-87.19680648886488,45.16326727246272],[-87.12143131501314,45.19075718256182],[-87.11784202102021,45.241441704307036],[-87.05682402314022,45.29298528574285],[-86.97785955529555,45.29040810667106],[-86.98503814328143,45.21566991358913],[-87.04246684716847,45.211374615136144],[-87.04964543515435,45.08938813907138],[-87.09271696306963,45.05502575144751],[-87.12143131501314,45.05846199020989],[-87.13937778497785,45.01293182660826],[-87.189627900879,44.96826072269722],[-87.1716814309143,44.93132115600155],[-87.21834225282252,44.89781782806827],[-87.20398507685077,44.875482276112756],[-87.26859236872369,44.84713330632306],[-87.3152531906319,44.79387160550605],[-87.34396754257543,44.719133412424114],[-87.4049855404554,44.62721402553025],[-87.43728918639187,44.60487847357473],[-87.46959283232832,44.55161677275772],[-87.54496800618006,44.32138877567775],[-87.5126643602436,44.240637164761644],[-87.51984294822948,44.17964392672926],[-87.56291447614475,44.144422479414786],[-87.64546823798237,44.10490573364733],[-87.65623611996119,44.05164403283032],[-87.68495047190471,44.01985882427824],[-87.73520058780588,43.88069115440154],[-87.72802199982,43.81024825977259],[-87.69930764787648,43.767295275242745],[-87.70648623586236,43.67967118680186],[-87.7818614097141,43.578302143311426],[-87.80698646766467,43.46147002539025],[-87.87877234752347,43.36955063849638],[-87.91107599345993,43.23553732676326],[-87.88236164151641,43.170248790277896],[-87.90030811148111,43.13760452203521],[-87.87159375953759,43.06458444833448],[-87.89671881748818,43.015618045970456],[-87.84646870158701,42.962356345153445],[-87.84646870158701,42.889336271452706],[-87.82493293762937,42.835215510945105],[-87.76750423374233,42.78453098919989],[-87.7818614097141,42.70807467673676],[-87.82134364363644,42.616155289842894],[-87.7998078796788,42.49159163470634],[-87.80698646766467,42.385068233072325],[-87.83570081960819,42.30173944308442],[-87.7998078796788,42.20810193680936],[-87.72443270582706,42.107591953009525],[-87.68136117791178,42.07580674445744],[-87.67059329593296,42.02941752116521],[-87.62393247402474,41.91000822417224],[-87.60957529805297,41.845578747377466],[-87.55932518215182,41.765686196151954],[-87.5306108302083,41.74850500234002],[-87.52343224222241,41.70812919688196],[-87.46959283232832,41.672907749567486],[-87.42652130441304,41.69008894337943],[-87.40139624646245,41.67720304802047],[-87.4229320104201,41.642840660396594],[-87.32602107261073,41.623082287512865],[-87.22193154681547,41.62394134720346],[-87.12143131501314,41.64541783946839],[-86.93478802738026,41.70984731626316],[-86.82351991359913,41.760531838008376],[-86.71584109381094,41.818947896968965],[-86.61893015600155,41.89368609005089],[-86.48612627826277,42.11790066929669],[-86.36409028250281,42.24332338412383],[-86.29589369663697,42.35843738266382],[-86.26000075670757,42.44348429203291],[-86.22410781677816,42.59467879757797],[-86.2276971107711,42.64450425963259],[-86.20616134681346,42.71924245271452],[-86.2097506408064,42.859269182281814],[-86.23128640476405,43.015618045970456],[-86.27076863868638,43.11870520884208],[-86.39639392843928,43.31628893767937],[-86.43587616236162,43.39704054859548],[-86.4789476902769,43.51559078589785],[-86.53996568815688,43.61781888907888],[-86.53996568815688,43.659053754227536],[-86.4610012203122,43.74667784266842],[-86.43587616236162,43.789630827198266],[-86.43228686836868,43.855778423374225],[-86.46459051430514,43.970892421914215],[-86.5148406302063,44.048207794067935],[-86.50048345423454,44.075697704167034],[-86.42869757437575,44.11950974838748],[-86.34255451854519,44.24922776166761],[-86.26717934469345,44.34544244701446],[-86.25282216872168,44.45196584864848],[-86.22051852278523,44.56707984718847],[-86.26000075670757,44.66329453253532],[-86.25641146271462,44.691643502325014],[-86.15950052490524,44.72858306902068],[-86.08771464504645,44.741468964379635],[-86.0661788810888,44.82136151560515],[-86.0733574690747,44.88493193270932],[-86.03746452914528,44.91585808157081],[-85.99080370723706,44.90039500714006],[-85.93337500335004,44.969119782387814],[-85.8687677114771,44.93905269321692],[-85.80774971359713,44.95022046919468],[-85.77903536165361,44.97771037929378],[-85.74673171571716,45.05158951268512],[-85.71083877578775,45.06533446773467],[-85.65699936589365,45.14608607865078],[-85.61751713197131,45.18646188410884],[-85.58521348603486,45.180448466274655],[-85.54214195811957,45.21051555544555],[-85.53137407614076,45.177012227512265],[-85.59957066200661,45.149522317413165],[-85.61033854398543,45.1134418104081],[-85.56726701607016,45.04385797546975],[-85.64982077790778,44.9742741405314],[-85.60315995599956,44.99059627465274],[-85.60315995599956,44.92702585754857],[-85.6246957199572,44.92101243971439],[-85.65341007190072,44.84885142570425],[-85.62828501395013,44.767240755097546],[-85.59957066200661,44.76552263571635],[-85.53137407614076,44.8900862908529],[-85.52060619416194,44.9742741405314],[-85.47394537225372,44.991455334343335],[-85.50265972419724,44.85572390322903],[-85.55649913409134,44.817925276842765],[-85.57803489804898,44.760368277572766],[-85.52778478214782,44.748341441904415],[-85.4990704302043,44.80418032179321],[-85.47394537225372,44.81534809777097],[-85.39498090440904,44.93132115600155],[-85.37703443444434,44.99832781186811],[-85.38062372843729,45.04643515454154],[-85.36626655246552,45.11687804917048],[-85.38780231642316,45.18989812287122],[-85.36985584645846,45.27064973378733],[-85.30883784857848,45.31274365862658],[-85.27294490864908,45.31532083769837],[-85.20833761677616,45.35655570284702],[-85.14373032490325,45.37030065789657],[-85.05399797507975,45.364287240062396],[-84.96067633126331,45.37631407573075],[-84.91760480334803,45.39349526954269],[-84.92119409734097,45.42184423933239],[-85.03964079910799,45.43644825407253],[-85.08989091500915,45.476824059530585],[-85.11860526695267,45.57475686425863],[-85.06117656306563,45.6391863410534],[-85.01451574115741,45.65121317672176],[-84.94272986129862,45.71048829537295],[-84.9499084492845,45.73711914578145],[-85.01451574115741,45.76031375742757],[-84.79915810158101,45.74742786206861],[-84.77403304363044,45.78952178690786],[-84.5550861100611,45.70189769846698],[-84.46176446624466,45.65207223641236],[-84.41510364433644,45.669253430224295],[-84.3756214104141,45.65550847517474],[-84.32896058850588,45.66409907208072],[-84.2141031807318,45.634891042600415],[-84.12796012490125,45.56187096889968],[-84.11719224292243,45.51290456653566],[-84.05617424504244,45.48970995488954],[-83.93772754327543,45.49314619365193],[-83.90901319133191,45.485414656436554],[-83.80492366553665,45.419267060260594],[-83.72236990369903,45.41325364242642],[-83.60033390793907,45.35226040439404],[-83.49624438214381,45.357414762537616],[-83.42086920829207,45.29040810667106],[-83.38138697436975,45.268931614406135],[-83.4136906203062,45.24573700276002],[-83.3598512104121,45.16326727246272],[-83.32036897648976,45.13749548174481],[-83.2701188605886,45.02324054289542],[-83.3419047404474,45.041280796397956],[-83.39933344433445,45.07048882587825],[-83.45317285422854,45.03526737856378],[-83.43881567825677,44.94077081259812],[-83.3957441503415,44.902972186211855],[-83.32036897648976,44.880636634256334],[-83.30242250652506,44.829952112511116],[-83.29883321253212,44.74576426283262],[-83.27370815458154,44.713979054280536],[-83.28806533055331,44.652985816248155],[-83.31677968249681,44.59542881697816],[-83.30960109451094,44.53958993708936],[-83.32754756447564,44.44423431143311],[-83.33113685846858,44.34028808887088],[-83.37420838638386,44.32740219351193],[-83.42445850228502,44.272422373313724],[-83.51060155811558,44.27414049269492],[-83.5393159100591,44.248368701977014],[-83.56803026200262,44.155590255392546],[-83.58238743797438,44.0567983909739],[-83.65058402384024,44.052503092520915],[-83.67929837578376,44.03618095839958],[-83.67929837578376,43.99408703356033],[-83.83004872348724,43.98893267541675],[-83.87670954539546,43.95886558624586],[-83.90901319133191,43.89357704976049],[-83.9269596612966,43.787053648126474],[-83.95567401324013,43.750973141121406],[-83.90901319133191,43.67279870927709],[-83.85158448744487,43.64530879917798],[-83.81928084150842,43.67365776896768],[-83.80133437154372,43.641013500725],[-83.72954849168491,43.62297324722247],[-83.68288766977669,43.590328978979784],[-83.6469947298473,43.60407393402933],[-83.54649449804498,43.70716109690096],[-83.49624438214381,43.70716109690096],[-83.47111932419324,43.728637589165885],[-83.49624438214381,43.77244963338633],[-83.46394073620736,43.81024825977259],[-83.4316370902709,43.88498645285452],[-83.41727991429914,43.84203346832468],[-83.34908332843328,43.86866431873318],[-83.33113685846858,43.89357704976049],[-83.40651203232032,43.920207900169],[-83.32036897648976,43.917630721097204],[-83.28088674256742,43.93824815367153],[-83.26294027260272,43.973469600986],[-83.1803865107651,43.98206019789197],[-83.05835051500515,44.006113869228685],[-83.0260468690687,44.044771555305545],[-82.91477875528754,44.070543346023456],[-82.87529652136521,44.044771555305545],[-82.7927427595276,44.02329506304062],[-82.73890334963349,43.989791735107346],[-82.67788535175352,43.88412739316392],[-82.64199241182412,43.85234218461184],[-82.61686735387353,43.76901339462394],[-82.59892088390883,43.590328978979784],[-82.53790288602886,43.43741635405353],[-82.52354571005709,43.225228610476094],[-82.4876527701277,43.10238307472074],[-82.42304547825478,43.00788650875508],[-82.4158668902689,42.966651643606426],[-82.45534912419124,42.92713489783897],[-82.48047418214182,42.80257124270242],[-82.46611700617005,42.762195437244365],[-82.50918853408534,42.66512169220692],[-82.52354571005709,42.607564692936926],[-82.58815300193001,42.550866753357525],[-82.64199241182412,42.554302992119915],[-82.6850639397394,42.51822248511485],[-82.68147464574645,42.57492042469424],[-82.71377829168291,42.59811503634035],[-82.67788535175352,42.611859991389906],[-82.62404594185942,42.66512169220692],[-82.67429605776057,42.68745724416244],[-82.72813546765467,42.68316194570945],[-82.79633205352053,42.653953916229156],[-82.8214571114711,42.62646400613006],[-82.78915346553465,42.60326939448394],[-82.78197487754878,42.56461170840708],[-82.83581428744287,42.56804794716947],[-82.87529652136521,42.523376843258426],[-82.87170722737227,42.451215829248284],[-82.89683228532284,42.385068233072325],[-82.95785028320283,42.339538069470684],[-83.06552910299102,42.31806157720577],[-83.13013639486394,42.234732787217865],[-83.12295780687806,42.12563220651206],[-83.13372568885688,42.087833580125796],[-83.18756509875098,42.06635708786087],[-83.19115439274393,42.00622290951909],[-83.24858309663097,41.97271958158581],[-83.2701188605886,41.93921625365253],[-83.31677968249681,41.93578001489014],[-83.3419047404474,41.879941135001346],[-83.38138697436975,41.87049147840478],[-83.44240497224972,41.8086391806818],[-83.42445850228502,41.74077346512465],[-83.45317285422854,41.73304192790927]]],[[[-84.65199704787048,45.8625418606086],[-84.62328269592696,45.877145875348745],[-84.5909790499905,45.82560229391293],[-84.3576749404494,45.77148153340533],[-84.41869293832939,45.72165607135071],[-84.501246700167,45.73711914578145],[-84.55149681606815,45.78952178690786],[-84.65199704787048,45.8625418606086]]],[[[-85.39498090440904,45.7783540109301],[-85.37703443444434,45.81271639855398],[-85.35190937649377,45.79553520474204],[-85.39498090440904,45.7783540109301]]],[[[-85.52419548815487,45.82989759236592],[-85.44882031430313,45.796394264432635],[-85.4631774902749,45.765468115571146],[-85.53137407614076,45.79811238381383],[-85.52419548815487,45.82989759236592]]],[[[-85.62828501395013,45.59795147590475],[-85.60315995599956,45.6391863410534],[-85.59239207402074,45.69846145970459],[-85.57085631006309,45.711347355063545],[-85.56726701607016,45.76031375742757],[-85.50265972419724,45.754300339593385],[-85.50624901819018,45.68128026589265],[-85.49189184221842,45.60997831157311],[-85.56008842808427,45.572179685186846],[-85.62828501395013,45.59795147590475]]],[[[-85.70007089380894,45.73626008609085],[-85.65341007190072,45.74313256361563],[-85.67135654186542,45.696743340323394],[-85.696481599816,45.69760240001399],[-85.70007089380894,45.73626008609085]]],[[[-85.88312488744887,45.44332073159731],[-85.83646406554065,45.42871671685716],[-85.83287477154771,45.37803219511194],[-85.88312488744887,45.44332073159731]]],[[[-86.0661788810888,45.1400726608166],[-86.04464311713117,45.15983103370033],[-85.97644653126531,45.138354541435405],[-85.99798229522295,45.05588481113811],[-86.05900029310293,45.10055591504914],[-86.0661788810888,45.1400726608166]]],[[[-86.15591123091231,45.01035464753647],[-86.11642899698997,45.04815327392273],[-86.09489323303232,45.007777468464674],[-86.15591123091231,45.01035464753647]]],[[[-86.69071603586036,45.61685078909788],[-86.61893015600155,45.56187096889968],[-86.64764450794507,45.54297165570655],[-86.66200168391684,45.57389780456804],[-86.71225179981799,45.610837371263706],[-86.69071603586036,45.61685078909788]]],[[[-89.25347194681946,47.87617777536774],[-89.17809677296772,47.93545289401893],[-88.83711384363843,48.056580310393095],[-88.81198878568786,48.0548621910119],[-88.65764914399143,48.1390500406904],[-88.5463810302103,48.17513054769547],[-88.52484526625265,48.1656808910989],[-88.42434503445034,48.190593622126215],[-88.42793432844329,48.1665399507895],[-88.47100585635856,48.15279499573995],[-88.57868467614676,48.084070220492194],[-88.57868467614676,48.05829842977429],[-88.66841702597026,48.01105014679146],[-88.85147101961019,47.96551998318982],[-89.00222136731367,47.90882204361043],[-88.99504277932779,47.89164084979849],[-88.91248901749017,47.89164084979849],[-89.12425736307362,47.828929492384916],[-89.18886465494654,47.83150667145671],[-89.25347194681946,47.87617777536774]]],[[[-82.73531405564056,41.60332391462914],[-82.67788535175352,41.61792792936929],[-82.6850639397394,41.5870017805078],[-82.73531405564056,41.60332391462914]]],[[[-82.84299287542875,41.64713595884958],[-82.8214571114711,41.7244513310033],[-82.78197487754878,41.69438424183241],[-82.7927427595276,41.66431715266152],[-82.84299287542875,41.62823664565645],[-82.84299287542875,41.64713595884958]]],[[[-86.95632379133791,45.35226040439404],[-86.93478802738026,45.42098517964179],[-86.82351991359913,45.40638116490164],[-86.90607367543674,45.296421524505234],[-86.95632379133791,45.35226040439404]]],[[[-87.37627118851188,45.199347779467786],[-87.3331996605966,45.211374615136144],[-87.32602107261073,45.157253854628536],[-87.37627118851188,45.177012227512265],[-87.37627118851188,45.199347779467786]]],[[[-90.46665331643317,47.00251407003069],[-90.43793896448965,47.073816024350236],[-90.39486743657436,47.07725226311263],[-90.41281390653906,47.012822786317855],[-90.46665331643317,47.00251407003069]]],[[[-90.5240820203202,46.87623229551295],[-90.44870684646845,46.904581265302646],[-90.49895696236962,46.86420545984459],[-90.5240820203202,46.87623229551295]]],[[[-90.65329660406604,46.92519869787697],[-90.63535013410134,46.943238951379506],[-90.52767131431314,46.96815168240682],[-90.50972484434844,46.95698390642906],[-90.54920707827078,46.91574904128041],[-90.63535013410134,46.90629938468384],[-90.65329660406604,46.92519869787697]]],[[[-90.76097542385423,46.83929272881728],[-90.75020754187541,46.862487340463396],[-90.67842166201662,46.89770878777787],[-90.67483236802367,46.88138665365653],[-90.76097542385423,46.83929272881728]]],[[[-90.73943965989659,46.96385638395383],[-90.68918954399544,46.9174671606616],[-90.73585036590366,46.91488998158981],[-90.76456471784718,46.946675190141896],[-90.73943965989659,46.96385638395383]]],[[[-90.775332599826,47.023990562295616],[-90.6497073100731,47.054916711157105],[-90.61022507615075,47.00766842817428],[-90.5599749602496,47.03687645765457],[-90.55279637226371,46.9990778312683],[-90.61022507615075,46.99134629405293],[-90.67124307403074,46.94925236921368],[-90.71072530795307,46.985332876218756],[-90.76815401184011,47.00251407003069],[-90.775332599826,47.023990562295616]]],[[[-90.7932790697907,46.785171968309676],[-90.73226107191071,46.80063504274042],[-90.61740366413663,46.874514176131754],[-90.56715354823548,46.847024266032655],[-90.67483236802367,46.81867529624296],[-90.65688589805897,46.788608207072066],[-90.71790389593896,46.785171968309676],[-90.78968977579775,46.75338675975759],[-90.7932790697907,46.785171968309676]]],[[[-90.9835116514165,46.98619193590935],[-90.92967224152241,47.0007959506495],[-90.93326153551536,46.962997324263235],[-90.9835116514165,46.98619193590935]]]]}}]}